CCSDS_OEM_VERS = 2.0

COMMENT Orbit data are consistent with planetary ephemeris DE-430

CREATION_DATE  = 2024-129T19:14:50
ORIGINATOR     = GSFC FDOA

META_START
OBJECT_NAME          = RST_032427
OBJECT_ID            = 211
CENTER_NAME          = Earth
REF_FRAME            = EME2000
TIME_SYSTEM          = UTC
START_TIME           = 2027-083T23:56:34.599000
USEABLE_START_TIME   = 2027-083T23:56:34.599000
USEABLE_STOP_TIME    = 2027-109T16:57:34.599077
STOP_TIME            = 2027-109T16:57:34.599077
INTERPOLATION        = Lagrange
INTERPOLATION_DEGREE = 5
META_STOP

2029-197T07:37:34.607110   8.328450408949457e+05  -9.918733172993604e+05  -2.086831735445011e+05   4.469490053722652e-01   2.476210896574204e-01   3.040950289941597e-02
2029-198T07:37:34.607110   8.711287119748777e+05  -9.701368246072209e+05  -2.060690854157607e+05   4.392013590585767e-01   2.555502308174885e-01   3.013864867731118e-02
2029-199T07:37:34.607110   9.087288834742407e+05  -9.477123076406706e+05  -2.034691274084756e+05   4.311012835919684e-01   2.635448479205609e-01   3.007846394123839e-02
2029-200T07:37:34.607110   9.456084745724300e+05  -9.245954688525870e+05  -2.008664162191953e+05   4.224969610764002e-01   2.715660219547827e-01   3.019512463620709e-02
2029-201T07:37:34.607110   9.817179335265198e+05  -9.007872444225544e+05  -1.982477969526347e+05   4.132539237695672e-01   2.795323292361844e-01   3.043677728950697e-02
2029-202T07:37:34.607110   1.016997330900203e+06  -8.762972146334727e+05  -1.956052171207255e+05   4.032684859344490e-01   2.873265060033069e-01   3.073802863097472e-02
2029-203T07:37:34.607110   1.051379518526661e+06  -8.511462870108330e+05  -1.929366541403814e+05   3.924788381205258e-01   2.948055746003461e-01   3.102575785275900e-02
2029-204T07:37:34.607110   1.084794108497425e+06  -8.253683683150552e+05  -1.902464934565445e+05   3.808727110515373e-01   3.018139964105486e-01   3.122594465315325e-02
2029-205T07:37:34.607110   1.117171915651998e+06  -7.990108121458647e+05  -1.875452972443090e+05   3.684902231861563e-01   3.081985478657870e-01   3.127077692223275e-02
2029-206T07:37:34.607110   1.148449398528872e+06  -7.721335932094848e+05  -1.848489911254126e+05   3.554208929661828e-01   3.138224195724505e-01   3.110477097247413e-02
2029-207T07:37:34.607110   1.178572583495112e+06  -7.448074062249700e+05  -1.821776175177204e+05   3.417947392581478e-01   3.185755494306954e-01   3.068846854662440e-02
2029-208T07:37:34.607110   1.207499996273993e+06  -7.171111093663503e+05  -1.795539074543544e+05   3.277684615019683e-01   3.223793422951696e-01   2.999890693832545e-02
2029-209T07:37:34.607110   1.235204261304226e+06  -6.891289899849573e+05  -1.770019362733021e+05   3.135089150615589e-01   3.251863633705439e-01   2.902742613505199e-02
2029-210T07:37:34.607110   1.261672285338857e+06  -6.609481908010989e+05  -1.745460239802998e+05   2.991775832686053e-01   3.269773326019214e-01   2.777650305531594e-02
2029-211T07:37:34.607110   1.286904295828039e+06  -6.326564419751042e+05  -1.722098946726462e+05   2.849201964568229e-01   3.277572486005871e-01   2.625708391424789e-02
2029-212T00:57:34.607459   1.304365078638897e+06  -6.122033733881837e+05  -1.706099372929433e+05   2.747413813429633e-01   3.277051614464470e-01   2.500243185530146e-02

META_START
OBJECT_NAME          = RST_032427
OBJECT_ID            = 211
CENTER_NAME          = Earth
REF_FRAME            = EME2000
TIME_SYSTEM          = UTC
START_TIME           = 2029-212T00:57:34.607459
USEABLE_START_TIME   = 2029-212T00:57:34.607459
USEABLE_STOP_TIME    = 2029-246T18:17:34.607809
STOP_TIME            = 2029-246T18:17:34.607809
INTERPOLATION        = Lagrange
INTERPOLATION_DEGREE = 5
META_STOP

2029-212T00:57:34.607459   1.304365078638897e+06  -6.122033733881837e+05  -1.706099372929433e+05   2.747413813429633e-01   3.277051614464470e-01   2.500243185530146e-02
2029-213T00:57:34.607459   1.327502321337765e+06  -5.839215331271677e+05  -1.685318329603368e+05   2.608985558171678e-01   3.268110889626747e-01   2.306470093285152e-02
2029-214T00:57:34.607459   1.349459358897120e+06  -5.557566207600271e+05  -1.666303850864695e+05   2.474377526808816e-01   3.250074667960938e-01   2.091777775750737e-02
2029-215T00:57:34.607459   1.370273236145253e+06  -5.277847646245458e+05  -1.649224173319946e+05   2.344514999781202e-01   3.223526876054194e-01   1.859124521107603e-02
2029-216T00:57:34.607459   1.389988793169777e+06  -5.000766484562540e+05  -1.634220269827598e+05   2.220282124049978e-01   3.189145348735435e-01   1.611873312141984e-02
2029-217T00:57:34.607459   1.408658412071389e+06  -4.726966230768781e+05  -1.621401947382138e+05   2.102541674300684e-01   3.147723873834420e-01   1.353899872024763e-02
2029-218T00:57:34.607459   1.426341810458807e+06  -4.457015359636089e+05  -1.610842735693326e+05   1.992124061931747e-01   3.100213428636251e-01   1.089754521373955e-02
2029-219T00:57:34.607459   1.443105576272364e+06  -4.191391665173418e+05  -1.602573365995896e+05   1.889777262626746e-01   3.047769600447000e-01   8.248139791903657e-03
2029-220T00:57:34.607459   1.459022081431925e+06  -3.930462945506426e+05  -1.596574306018916e+05   1.796073010971174e-01   2.991786083282832e-01   5.653303993438183e-03
2029-221T00:57:34.607459   1.474167414136267e+06  -3.674466339836878e+05  -1.592768712696576e+05   1.711275949718413e-01   2.933887660447980e-01   3.182674142645930e-03
2029-222T00:57:34.607459   1.488618105452885e+06  -3.423490990881537e+05  -1.591018062889884e+05   1.635201508702968e-01   2.875856612627379e-01   9.083427457603543e-04
2029-223T00:57:34.607459   1.502446739439846e+06  -3.177470437213373e+05  -1.591123172783439e+05   1.567108458474012e-01   2.819481292315796e-01  -1.102857022225100e-03
2029-224T00:57:34.607459   1.515716977062893e+06  -2.936190903080489e+05  -1.592832769578959e+05   1.505678681682111e-01   2.766345868157848e-01  -2.798767023341585e-03
2029-225T00:57:34.607459   1.528478911477503e+06  -2.699318494807588e+05  -1.595860017174841e+05   1.449116134786406e-01   2.717613525609728e-01  -4.150405983543323e-03
2029-226T00:57:34.607459   1.540765765638294e+06  -2.466443015901034e+05  -1.599904965530627e+05   1.395352340556558e-01   2.673869098371752e-01  -5.156786591808047e-03
2029-227T00:57:34.607459   1.552592632924873e+06  -2.237131010532334e+05  -1.604678971724721e+05   1.342302028470142e-01   2.635067203497147e-01  -5.844586634660540e-03
2029-228T00:57:34.607459   1.563957384683223e+06  -2.010978448912187e+05  -1.609926749239326e+05   1.288098168889298e-01   2.600589167312902e-01  -6.263236833633711e-03
2029-229T00:57:34.607459   1.574843328041854e+06  -1.787654951033120e+05  -1.615442892713528e+05   1.231256887851998e-01   2.569374369263033e-01  -6.477433012873793e-03
2029-230T00:57:34.607459   1.585222928413225e+06  -1.566935144479718e+05  -1.621081625761844e+05   1.170759826532992e-01   2.540079383923459e-01  -6.559251718209365e-03
2029-231T00:57:34.607459   1.595061937889448e+06  -1.348716406655168e+05  -1.626760104826691e+05   1.106069672448851e-01   2.511229809116610e-01  -6.581265511807967e-03
2029-232T00:57:34.607459   1.604323457961529e+06  -1.133024423189943e+05  -1.632456394619945e+05   1.037103312294022e-01   2.481349406956698e-01  -6.611105608506022e-03
2029-233T00:57:34.607459   1.612971658613051e+06  -9.200086361351098e+04  -1.638203339371534e+05   9.641814650099902e-02   2.449065391412211e-01  -6.707361124660817e-03
2029-234T00:57:34.607459   1.620974997835506e+06  -7.099295171323665e+04  -1.644079396240783e+05   8.879643752573080e-02   2.413192826469561e-01  -6.916629766094637e-03
2029-235T00:57:34.607459   1.628308840603024e+06  -5.031394357884512e+04  -1.650197413774191e+05   8.093776101023475e-02   2.372798049699666e-01  -7.271731709819816e-03
2029-236T00:57:34.607459   1.634957406108958e+06  -3.000591072662565e+04  -1.656692436281697e+05   7.295314627062127e-02   2.327236408865367e-01  -7.791277237414862e-03
2029-237T00:57:34.607459   1.640915007988971e+06  -1.011521186148356e+04  -1.663709774821966e+05   6.496387497293625e-02   2.276158328180524e-01  -8.480714555574193e-03
2029-238T00:57:34.607459   1.646186594982383e+06   9.309962812156737e+03  -1.671394552086033e+05   5.709358124735627e-02   2.219482538337497e-01  -9.334609210815656e-03
2029-239T00:57:34.607459   1.650787639264419e+06   2.822170210065584e+04  -1.679883497099495e+05   4.946114270140273e-02   2.157345271565686e-01  -1.033941946053761e-02
2029-240T00:57:34.607459   1.654743470106468e+06   4.657400316007260e+04  -1.689299022144800e+05   4.217510979400167e-02   2.090042981504444e-01  -1.147587378643893e-02
2029-241T00:57:34.607459   1.658088229795577e+06   6.432394267549538e+04  -1.699744983168415e+05   3.533069257981152e-02   2.017985792326412e-01  -1.272046226996916e-02
2029-242T00:57:34.607459   1.660863702817327e+06   8.143252518169151e+04  -1.711303361926926e+05   2.900983887701123e-02   1.941669834349893e-01  -1.404612260158886e-02
2029-243T00:57:34.607459   1.663118266302396e+06   9.786537528488811e+04  -1.724031288241883e+05   2.328375616760239e-02   1.861668434928898e-01  -1.542237187504958e-02
2029-244T00:57:34.607459   1.664906108657935e+06   1.135934286793617e+05  -1.737957966808579e+05   1.821629736420680e-02   1.778640444762704e-01  -1.681494665717454e-02
2029-245T00:57:34.607459   1.666286714127153e+06   1.285937663622089e+05  -1.753081057749265e+05   1.386644018916031e-02   1.693355151979003e-01  -1.818488843282219e-02
2029-246T00:57:34.607459   1.667324460949142e+06   1.428507337385197e+05  -1.769362036180776e+05   1.028824904855304e-02   1.606731935113302e-01  -1.948715437503882e-02
